H1 CPF  1  DLR 2022 03 09 10  5682 technosat            
H2  1704205 6203    42829 2022 03 09 00 00 00 2022 03 16 00 00 00    60 1 1  0 0 0
H9
10 0 59648  28800.000000  0       3840941.202        833273.184      -5757640.293
10 0 59648  28860.000000  0       4214110.315        788564.170      -5496389.954
10 0 59648  28920.000000  0       4569144.215        737354.204      -5211865.670
10 0 59648  28980.000000  0       4904483.067        680022.126      -4905258.470
10 0 59648  29040.000000  0       5218651.521        616986.095      -4577854.436
10 0 59648  29100.000000  0       5510265.539        548701.127      -4231029.573
10 0 59648  29160.000000  0       5778038.873        475656.390      -3866244.224
10 0 59648  29220.000000  0       6020789.123        398372.310      -3485037.093
10 0 59648  29280.000000  0       6237443.388        317397.480      -3089018.904
10 0 59648  29340.000000  0       6427043.514        233305.386      -2679865.670
10 0 59648  29400.000000  0       6588750.820        146690.938      -2259311.549
10 0 59648  29460.000000  0       6721850.220         58166.858      -1829141.346
10 0 59648  29520.000000  0       6825753.735        -31640.022      -1391182.779
10 0 59648  29580.000000  0       6900003.419       -122092.572       -947298.508
10 0 59648  29640.000000  0       6944273.641       -212547.248       -499377.976
10 0 59648  29700.000000  0       6958372.787       -302358.028        -49329.133
10 0 59648  29760.000000  0       6942244.316       -390880.419        400930.050
10 0 59648  29820.000000  0       6895967.025       -477475.452        849480.141
10 0 59648  29880.000000  0       6819754.691       -561513.630       1294408.696
10 0 59648  29940.000000  0       6713955.146       -642378.835       1733818.806
10 0 59648  30000.000000  0       6579048.535       -719472.156       2165837.606
10 0 59648  30060.000000  0       6415644.899       -792215.651       2588624.579
10 0 59648  30120.000000  0       6224481.107       -860055.961       3000379.642
10 0 59648  30180.000000  0       6006417.223       -922467.721       3399351.002
10 0 59648  30240.000000  0       5762432.358       -978956.839       3783842.741
10 0 59648  30300.000000  0       5493619.995      -1029063.686       4152222.216
10 0 59648  30360.000000  0       5201182.580      -1072366.009       4502927.110
10 0 59648  30420.000000  0       4886425.751      -1108481.589       4834472.000
10 0 59648  30480.000000  0       4550752.105      -1137070.697       5145454.629
10 0 59648  30540.000000  0       4195654.554      -1157838.219       5434561.722
10 0 59648  30600.000000  0       3822709.365      -1170535.592       5700574.395
10 0 59648  30660.000000  0       3433568.796      -1174962.519       5942373.129
10 0 59648  30720.000000  0       3029953.467      -1170968.356       6158942.226
10 0 59648  30780.000000  0       2613644.540      -1158453.226       6349373.798
10 0 59648  30840.000000  0       2186475.712      -1137368.880       6512871.369
10 0 59648  30900.000000  0       1750324.938      -1107719.286       6648753.002
10 0 59648  30960.000000  0       1307106.008      -1069560.886       6756453.872
10 0 59648  31020.000000  0        858760.044      -1023002.564       6835528.328
10 0 59648  31080.000000  0        407246.991       -968205.344       6885651.473
10 0 59648  31140.000000  0        -45462.954       -905381.810       6906620.287
10 0 59648  31200.000000  0       -497397.869       -834795.257       6898354.231
10 0 59648  31260.000000  0       -946592.617       -756758.575       6860895.468
10 0 59648  31320.000000  0      -1391097.332       -671632.825       6794408.559
10 0 59648  31380.000000  0      -1828985.772       -579825.556       6699179.666
10 0 59648  31440.000000  0      -2258363.548       -481788.889       6575615.356
10 0 59648  31500.000000  0      -2677376.257       -378017.325       6424240.953
10 0 59648  31560.000000  0      -3084217.457       -269045.308       6245698.408
10 0 59648  31620.000000  0      -3477136.452       -155444.576       6040743.707
10 0 59648  31680.000000  0      -3854445.868        -37821.290       5810243.834
10 0 59648  31740.000000  0      -4214528.989         83187.086       5555173.225
10 0 59648  31800.000000  0      -4555846.736        206915.064       5276609.797
10 0 59648  31860.000000  0      -4876944.382        332672.581       4975730.555
10 0 59648  31920.000000  0      -5176457.910        459748.649       4653806.773
10 0 59648  31980.000000  0      -5453119.985        587415.164       4312198.713
10 0 59648  32040.000000  0      -5705765.436        714930.819       3952349.975
10 0 59648  32100.000000  0      -5933336.343        841545.143       3575781.542
10 0 59648  32160.000000  0      -6134886.698        966502.643       3184085.447
10 0 59648  32220.000000  0      -6309586.564       1089047.012       2778918.053
10 0 59648  32280.000000  0      -6456725.662       1208425.357       2361993.051
10 0 59648  32340.000000  0      -6575716.456       1323892.452       1935074.216
10 0 59648  32400.000000  0      -6666096.720       1434715.006       1499967.888
10 0 59648  32460.000000  0      -6727531.471       1540175.903       1058515.193
10 0 59648  32520.000000  0      -6759814.298       1639578.386        612584.111
10 0 59648  32580.000000  0      -6762868.039       1732250.162        164061.402
10 0 59648  32640.000000  0      -6736744.860       1817547.360       -285155.526
10 0 59648  32700.000000  0      -6681625.726       1894858.381       -733166.804
10 0 59648  32760.000000  0      -6597819.244       1963607.579      -1178078.265
10 0 59648  32820.000000  0      -6485759.982       2023258.798      -1618009.556
10 0 59648  32880.000000  0      -6346006.169       2073318.727      -2051102.246
10 0 59648  32940.000000  0      -6179236.788       2113340.031      -2475527.836
10 0 59648  33000.000000  0      -5986248.075       2142924.240      -2889495.581
10 0 59648  33060.000000  0      -5767949.482       2161724.362      -3291260.094
10 0 59648  33120.000000  0      -5525359.144       2169447.221      -3679128.699
10 0 59648  33180.000000  0      -5259598.879       2165855.528      -4051468.485
10 0 59648  33240.000000  0      -4971888.776       2150769.668      -4406713.090
10 0 59648  33300.000000  0      -4663541.337       2124069.192      -4743369.145
10 0 59648  33360.000000  0      -4335955.285       2085694.002      -5060022.354
10 0 59648  33420.000000  0      -3990609.041       2035645.248      -5355343.195
10 0 59648  33480.000000  0      -3629053.940       1973985.920      -5628092.241
10 0 59648  33540.000000  0      -3252907.194       1900841.132      -5877125.130
10 0 59648  33600.000000  0      -2863844.621       1816398.079      -6101397.150
10 0 59648  33660.000000  0      -2463593.122       1720905.708      -6299967.421
10 0 59648  33720.000000  0      -2053922.932       1614674.062      -6472002.563
10 0 59648  33780.000000  0      -1636639.849       1498073.331      -6616779.854
10 0 59648  33840.000000  0      -1213577.439       1371532.597      -6733690.067
10 0 59648  33900.000000  0       -786589.089       1235538.283      -6822239.883
10 0 59648  33960.000000  0       -357540.027       1090632.341      -6882053.770
10 0 59648  34020.000000  0         71700.542        937410.184      -6912875.481
10 0 59648  34080.000000  0        499267.366        776518.336      -6914569.275
10 0 59648  34140.000000  0        923307.182        608651.767      -6887120.666
10 0 59648  34200.000000  0       1341986.705        434550.959      -6830636.549
10 0 59648  34260.000000  0       1753500.416        254998.728      -6745344.853
10 0 59648  34320.000000  0       2156078.193         70816.809      -6631593.793
10 0 59648  34380.000000  0       2547992.869       -117137.756      -6489850.775
10 0 59648  34440.000000  0       2927567.731       -307976.498      -6320700.740
10 0 59648  34500.000000  0       3293183.693       -500783.624      -6124843.946
10 0 59648  34560.000000  0       3643286.197       -694620.269      -5903093.387
10 0 59648  34620.000000  0       3976391.928       -888528.907      -5656371.832
10 0 59648  34680.000000  0       4291095.340      -1081538.001      -5385708.406
10 0 59648  34740.000000  0       4586074.874      -1272666.811      -5092234.616
10 0 59648  34800.000000  0       4860098.788      -1460930.305      -4777179.912
10 0 59648  34860.000000  0       5112030.629      -1645344.145      -4441866.829
10 0 59648  34920.000000  0       5340834.312      -1824929.765      -4087705.677
10 0 59648  34980.000000  0       5545578.770      -1998719.489      -3716188.811
10 0 59648  35040.000000  0       5725442.159      -2165761.680      -3328884.470
10 0 59648  35100.000000  0       5879715.549      -2325125.875      -2927430.221
10 0 59648  35160.000000  0       6007806.099      -2475907.898      -2513526.036
10 0 59648  35220.000000  0       6109239.673      -2617234.873      -2088927.016
10 0 59648  35280.000000  0       6183662.870      -2748270.136      -1655435.861
10 0 59648  35340.000000  0       6230844.525      -2868218.011      -1214895.078
10 0 59648  35400.000000  0       6250676.623      -2976328.443       -769178.914
10 0 59648  35460.000000  0       6243174.547      -3071901.420       -320185.106
10 0 59648  35520.000000  0       6208476.722      -3154291.158        130173.480
10 0 59648  35580.000000  0       6146843.703      -3222910.045        579977.286
10 0 59648  35640.000000  0       6058656.677      -3277232.326       1027308.634
10 0 59648  35700.000000  0       5944415.269      -3316797.452       1470260.350
10 0 59648  35760.000000  0       5804734.659      -3341213.051       1906944.278
10 0 59648  35820.000000  0       5640342.184      -3350157.584       2335499.552
10 0 59648  35880.000000  0       5452073.506      -3343382.683       2754100.819
10 0 59648  35940.000000  0       5240868.182      -3320715.044       3160966.348
99
